{
  "norad_id": 47280,
  "name": "ONEWEB-0134",
  "history": [
    {
      "epoch": "2026-03-28T20:20:46.019904Z",
      "apogee_km": 1215.28111029124,
      "perigee_km": 1212.1645000040317,
      "latitude_deg": 3.171308428975331e-06,
      "longitude_deg": -124.86237070944723,
      "height_km": 1216.3016599484,
      "semi_major_axis_km": 7591.859805147636,
      "eccentricity": 0.00020526,
      "inclination_deg": 87.9022,
      "raan_deg": 6.5917,
      "arg_perigee_deg": 78.5812,
      "mean_anomaly_deg": 281.5547,
      "mean_motion_rev_day": 13.12443126
    },
    {
      "epoch": "2026-03-29T03:39:53.542656Z",
      "apogee_km": 1215.283292224838,
      "perigee_km": 1212.1569654591804,
      "latitude_deg": 3.153400027985132e-05,
      "longitude_deg": 124.99541490073135,
      "height_km": 1216.2979694945923,
      "semi_major_axis_km": 7591.857128842009,
      "eccentricity": 0.0002059,
      "inclination_deg": 87.9022,
      "raan_deg": 6.5314,
      "arg_perigee_deg": 78.5798,
      "mean_anomaly_deg": 281.5562,
      "mean_motion_rev_day": 13.1244382
    },
    {
      "epoch": "2026-03-30T01:37:16.247424Z",
      "apogee_km": 1215.2748170835494,
      "perigee_km": 1212.1636743940471,
      "latitude_deg": -3.2034995213007455e-05,
      "longitude_deg": 154.56779640999272,
      "height_km": 1216.290755036947,
      "semi_major_axis_km": 7591.856245738798,
      "eccentricity": 0.0002049,
      "inclination_deg": 87.9022,
      "raan_deg": 6.3501,
      "arg_perigee_deg": 78.2841,
      "mean_anomaly_deg": 281.8517,
      "mean_motion_rev_day": 13.12444049
    },
    {
      "epoch": "2026-03-30T05:16:49.974240Z",
      "apogee_km": 1215.2833417636093,
      "perigee_km": 1212.152157190736,
      "latitude_deg": 2.976719154248048e-05,
      "longitude_deg": 99.49678551196351,
      "height_km": 1216.2841827375767,
      "semi_major_axis_km": 7591.854749477173,
      "eccentricity": 0.00020622,
      "inclination_deg": 87.9022,
      "raan_deg": 6.3199,
      "arg_perigee_deg": 78.1716,
      "mean_anomaly_deg": 281.9644,
      "mean_motion_rev_day": 13.12444437
    },
    {
      "epoch": "2026-03-30T07:06:36.864864Z",
      "apogee_km": 1215.2829523771052,
      "perigee_km": 1212.1513125474648,
      "latitude_deg": 2.317895584020424e-05,
      "longitude_deg": 71.96116498621782,
      "height_km": 1216.2845165274448,
      "semi_major_axis_km": 7591.854132462285,
      "eccentricity": 0.00020625,
      "inclination_deg": 87.9021,
      "raan_deg": 6.3048,
      "arg_perigee_deg": 78.2089,
      "mean_anomaly_deg": 281.9271,
      "mean_motion_rev_day": 13.12444597
    },
    {
      "epoch": "2026-03-30T18:05:18.152448Z",
      "apogee_km": 1215.279644479726,
      "perigee_km": 1212.1505867117612,
      "latitude_deg": 5.402138813861756e-05,
      "longitude_deg": -93.252320963082,
      "height_km": 1216.2791131868248,
      "semi_major_axis_km": 7591.852115595743,
      "eccentricity": 0.00020608,
      "inclination_deg": 87.9021,
      "raan_deg": 6.2142,
      "arg_perigee_deg": 78.0723,
      "mean_anomaly_deg": 282.0637,
      "mean_motion_rev_day": 13.1244512
    },
    {
      "epoch": "2026-03-31T12:23:06.932544Z",
      "apogee_km": 1215.2823946359122,
      "perigee_km": 1212.1437719744708,
      "latitude_deg": -8.361943398803067e-05,
      "longitude_deg": -8.608101669140332,
      "height_km": 1216.2657815447644,
      "semi_major_axis_km": 7591.850083305191,
      "eccentricity": 0.00020671,
      "inclination_deg": 87.9022,
      "raan_deg": 6.0631,
      "arg_perigee_deg": 77.6867,
      "mean_anomaly_deg": 282.4492,
      "mean_motion_rev_day": 13.12445647
    },
    {
      "epoch": "2026-04-01T12:10:16.279104Z",
      "apogee_km": 1215.2954858045523,
      "perigee_km": 1212.1281664742883,
      "latitude_deg": 3.798328440100851e-06,
      "longitude_deg": -6.570194596206631,
      "height_km": 1216.2618717214593,
      "semi_major_axis_km": 7591.84882613942,
      "eccentricity": 0.0002086,
      "inclination_deg": 87.9023,
      "raan_deg": 5.8668,
      "arg_perigee_deg": 77.7035,
      "mean_anomaly_deg": 282.4327,
      "mean_motion_rev_day": 13.12445973
    },
    {
      "epoch": "2026-04-02T06:28:05.001312Z",
      "apogee_km": 1215.3118372388517,
      "perigee_km": 1212.1102030917882,
      "latitude_deg": -3.7521371837385916e-05,
      "longitude_deg": 78.07426985547724,
      "height_km": 1216.25383195373,
      "semi_major_axis_km": 7591.84802016532,
      "eccentricity": 0.00021086,
      "inclination_deg": 87.9024,
      "raan_deg": 5.7157,
      "arg_perigee_deg": 77.5735,
      "mean_anomaly_deg": 282.5629,
      "mean_motion_rev_day": 13.12446182
    },
    {
      "epoch": "2026-04-03T19:03:42.575328Z",
      "apogee_km": 1215.2915822251734,
      "perigee_km": 1212.1500714564272,
      "latitude_deg": 7.273285587499426e-05,
      "longitude_deg": -112.6371368314505,
      "height_km": 1216.2508736076525,
      "semi_major_axis_km": 7591.8578268408,
      "eccentricity": 0.0002069,
      "inclination_deg": 87.9022,
      "raan_deg": 5.4137,
      "arg_perigee_deg": 76.852,
      "mean_anomaly_deg": 283.284,
      "mean_motion_rev_day": 13.12443639
    },
    {
      "epoch": "2026-04-04T06:02:23.792064Z",
      "apogee_km": 1215.2877756462758,
      "perigee_km": 1212.1515796527392,
      "latitude_deg": 2.1103723919548656e-05,
      "longitude_deg": 82.1495694384939,
      "height_km": 1216.2476473654692,
      "semi_major_axis_km": 7591.856677649507,
      "eccentricity": 0.00020655,
      "inclination_deg": 87.9021,
      "raan_deg": 5.323,
      "arg_perigee_deg": 76.7508,
      "mean_anomaly_deg": 283.3851,
      "mean_motion_rev_day": 13.12443937
    },
    {
      "epoch": "2026-04-05T11:18:54.004032Z",
      "apogee_km": 1215.2948294480939,
      "perigee_km": 1212.1609076303603,
      "latitude_deg": 2.4597975758023354e-06,
      "longitude_deg": 1.5799000564083483,
      "height_km": 1216.2385088027306,
      "semi_major_axis_km": 7591.864868539227,
      "eccentricity": 0.0002064,
      "inclination_deg": 87.902,
      "raan_deg": 5.0815,
      "arg_perigee_deg": 76.0888,
      "mean_anomaly_deg": 284.047,
      "mean_motion_rev_day": 13.12441813
    },
    {
      "epoch": "2026-04-05T18:38:01.563936Z",
      "apogee_km": 1215.283658322418,
      "perigee_km": 1212.174030072635,
      "latitude_deg": -8.413950051848575e-06,
      "longitude_deg": -108.56267155167333,
      "height_km": 1216.2394449176973,
      "semi_major_axis_km": 7591.865844197527,
      "eccentricity": 0.0002048,
      "inclination_deg": 87.9021,
      "raan_deg": 5.021,
      "arg_perigee_deg": 75.9752,
      "mean_anomaly_deg": 284.1604,
      "mean_motion_rev_day": 13.1244156
    },
    {
      "epoch": "2026-04-06T03:46:55.979904Z",
      "apogee_km": 1215.272910207007,
      "perigee_km": 1212.1811994893114,
      "latitude_deg": 2.7933077971182745e-05,
      "longitude_deg": 113.7592823365372,
      "height_km": 1216.2385173130826,
      "semi_major_axis_km": 7591.864054848159,
      "eccentricity": 0.00020362,
      "inclination_deg": 87.9019,
      "raan_deg": 4.9454,
      "arg_perigee_deg": 75.9246,
      "mean_anomaly_deg": 284.2109,
      "mean_motion_rev_day": 13.12442024
    },
    {
      "epoch": "2026-04-07T10:53:13.290720Z",
      "apogee_km": 1215.2757541450937,
      "perigee_km": 1212.1841940758968,
      "latitude_deg": -2.7053982718563826e-05,
      "longitude_deg": 5.653219415761635,
      "height_km": 1216.2300652095437,
      "semi_major_axis_km": 7591.866974110495,
      "eccentricity": 0.00020361,
      "inclination_deg": 87.9018,
      "raan_deg": 4.6889,
      "arg_perigee_deg": 75.4885,
      "mean_anomaly_deg": 284.6469,
      "mean_motion_rev_day": 13.12441267
    },
    {
      "epoch": "2026-04-07T18:12:20.941344Z",
      "apogee_km": 1215.2740454798577,
      "perigee_km": 1212.188710171109,
      "latitude_deg": -6.847013427840072e-05,
      "longitude_deg": -104.48963268858162,
      "height_km": 1216.228891507952,
      "semi_major_axis_km": 7591.868377825483,
      "eccentricity": 0.0002032,
      "inclination_deg": 87.9018,
      "raan_deg": 4.6285,
      "arg_perigee_deg": 75.3591,
      "mean_anomaly_deg": 284.7762,
      "mean_motion_rev_day": 13.12440903
    },
    {
      "epoch": "2026-04-08T16:09:43.814592Z",
      "apogee_km": 1215.2898830359727,
      "perigee_km": 1212.172510117095,
      "latitude_deg": -4.166282938514807e-06,
      "longitude_deg": -74.91775373656667,
      "height_km": 1216.2251736902424,
      "semi_major_axis_km": 7591.868196576534,
      "eccentricity": 0.00020531,
      "inclination_deg": 87.9017,
      "raan_deg": 4.4474,
      "arg_perigee_deg": 75.3804,
      "mean_anomaly_deg": 284.7552,
      "mean_motion_rev_day": 13.1244095
    },
    {
      "epoch": "2026-04-09T10:27:32.881536Z",
      "apogee_km": 1215.2795109539602,
      "perigee_km": 1212.1817252910623,
      "latitude_deg": -7.902726044219581e-06,
      "longitude_deg": 9.725268680010501,
      "height_km": 1216.2138715937972,
      "semi_major_axis_km": 7591.867618122511,
      "eccentricity": 0.00020402,
      "inclination_deg": 87.9018,
      "raan_deg": 4.2963,
      "arg_perigee_deg": 74.8742,
      "mean_anomaly_deg": 285.2612,
      "mean_motion_rev_day": 13.124411
    },
    {
      "epoch": "2026-04-10T10:14:42.724896Z",
      "apogee_km": 1215.276337798141,
      "perigee_km": 1212.1849292977595,
      "latitude_deg": -2.1489480943852354e-05,
      "longitude_deg": 11.76109244002269,
      "height_km": 1216.2051014633967,
      "semi_major_axis_km": 7591.8676335479495,
      "eccentricity": 0.0002036,
      "inclination_deg": 87.9016,
      "raan_deg": 4.1,
      "arg_perigee_deg": 74.5041,
      "mean_anomaly_deg": 285.6312,
      "mean_motion_rev_day": 13.12441096
    },
    {
      "epoch": "2026-04-11T19:10:47.081856Z",
      "apogee_km": 1215.2553955164321,
      "perigee_km": 1212.203465211427,
      "latitude_deg": -3.870701630937393e-05,
      "longitude_deg": -123.8816384429071,
      "height_km": 1216.187096166084,
      "semi_major_axis_km": 7591.86643036393,
      "eccentricity": 0.000201,
      "inclination_deg": 87.9012,
      "raan_deg": 3.828,
      "arg_perigee_deg": 73.6399,
      "mean_anomaly_deg": 286.495,
      "mean_motion_rev_day": 13.12441408
    },
    {
      "epoch": "2026-04-13T04:06:51.262560Z",
      "apogee_km": 1215.2397190751317,
      "perigee_km": 1212.2125395709454,
      "latitude_deg": -4.7452177344010556e-05,
      "longitude_deg": 100.4764692835576,
      "height_km": 1216.1845739023424,
      "semi_major_axis_km": 7591.863129323038,
      "eccentricity": 0.00019937,
      "inclination_deg": 87.9015,
      "raan_deg": 3.5561,
      "arg_perigee_deg": 73.5317,
      "mean_anomaly_deg": 286.603,
      "mean_motion_rev_day": 13.12442264
    }
  ]
}